OBJECT_NAME,OBJECT_ID,EPOCH,MEAN_MOTION,ECCENTRICITY,INCLINATION,RA_OF_ASC_NODE,ARG_OF_PERICENTER,MEAN_ANOMALY,EPHEMERIS_TYPE,CLASSIFICATION_TYPE,NORAD_CAT_ID,ELEMENT_SET_NO,REV_AT_EPOCH,BSTAR,MEAN_MOTION_DOT,MEAN_MOTION_DDOT
2022-096L,2022-096L,2022-08-29T15:50:39.967584,15.25133336,.0004982,97.4349,142.9920,42.1823,45.0404,0,U,53380,999,310,.11934E-3,.2918E-4,0
RS19S (SXC3-219 ISOI),2022-096M,2022-08-29T11:11:50.720928,15.25238621,.0005375,97.4350,142.8037,40.3914,70.9375,0,U,53381,999,307,.15002E-3,.3698E-4,0
RS8S (SXC3-2111 RESHUCUBE),2022-096N,2022-08-29T15:49:01.399872,15.25237827,.0005267,97.4351,142.9946,41.2148,46.6402,0,U,53382,999,310,.1335E-3,.3283E-4,0
RS21S (CUBESX-HSE-2),2022-096P,2022-08-29T09:36:12.298176,15.25297343,.0005499,97.4351,142.7385,40.3140,71.0378,0,U,53383,999,306,.13756E-3,.3391E-4,0
RS30S (SXC3-217 SIREN),2022-096Q,2022-08-29T15:47:50.304768,15.25317313,.0005432,97.4353,142.9955,40.2732,48.8831,0,U,53384,999,310,.1302E-3,.3208E-4,0
RS20S (GEOSCAN-EDELVEIS),2022-096R,2022-08-29T09:32:49.112160,15.25492938,.0005989,97.4346,142.7414,38.1977,73.0016,0,U,53385,999,309,.17529E-3,.4367E-4,0
RS33S (SXC3-215 VIZARD),2022-096S,2022-08-29T12:40:58.252800,15.25738591,.0006786,97.4339,142.8772,37.1500,87.2202,0,U,53386,999,310,.20917E-3,.5266E-4,0
2022-095D,2022-095D,2022-08-29T13:40:56.620128,15.25695637,.0084109,97.4074,315.3038,1.9289,109.3472,0,U,53387,999,311,.87943E-4,.2398E-4,0
STARLINK-4522,2022-097A,2022-08-29T14:00:01.000224,15.68211496,.0000969,53.2173,152.1190,85.4778,323.5574,0,U,53388,999,130,-.1084E-1,-.1102933E-1,0
STARLINK-4523,2022-097B,2022-08-29T14:00:01.000224,15.68226115,.0000974,53.2173,152.1229,84.0744,326.2580,0,U,53389,999,130,-.10834E-1,-.1102985E-1,0
STARLINK-4517,2022-097C,2022-08-29T16:00:00.999936,15.67876195,.000134,53.2173,151.7136,67.7724,92.6884,0,U,53390,999,349,-.90129E-2,-.922102E-2,0
STARLINK-4521,2022-097D,2022-08-29T14:00:01.000224,15.68233457,.0000963,53.2173,152.1254,95.5174,315.4634,0,U,53391,999,130,-.10831E-1,-.1103007E-1,0
STARLINK-4535,2022-097E,2022-08-29T14:00:01.000224,15.68248090,.0000973,53.2174,152.1307,85.4153,326.8622,0,U,53392,999,130,-.10824E-1,-.110297E-1,0
STARLINK-4530,2022-097F,2022-08-29T16:00:00.999936,15.68069667,.000123,53.2175,151.7204,75.0026,87.3181,0,U,53393,999,349,-.11296E-1,-.1157356E-1,0
STARLINK-4544,2022-097G,2022-08-29T16:00:00.999936,15.78103223,.0007291,53.2180,151.3056,275.0886,100.8140,0,U,53394,999,349,-.57174E-2,-.900034E-2,0
STARLINK-4534,2022-097H,2022-08-29T16:00:00.999936,15.68090429,.0001152,53.2174,151.7239,72.5334,91.0874,0,U,53395,999,349,-.11399E-1,-.1167782E-1,0
STARLINK-4524,2022-097J,2022-08-29T16:00:00.999936,15.67947467,.0001222,53.2175,151.7333,73.8751,92.4350,0,U,53396,999,349,-.90282E-2,-.925969E-2,0
STARLINK-4515,2022-097K,2022-08-29T16:00:00.999936,15.68095328,.0001215,53.2175,151.7262,66.5369,97.7353,0,U,53397,999,349,-.11359E-1,-.1164309E-1,0
STARLINK-4512,2022-097L,2022-08-29T14:00:01.000224,15.68299291,.0000972,53.2174,152.1464,89.1859,327.6277,0,U,53398,999,130,-.10802E-1,-.1103052E-1,0
STARLINK-4528,2022-097M,2022-08-29T16:00:00.999936,15.67813849,.000124,53.2175,151.7308,73.7336,91.9937,0,U,53399,999,349,-.73297E-2,-.750977E-2,0
STARLINK-4520,2022-097N,2022-08-29T16:00:00.999936,15.68137215,.0001449,53.2175,151.7439,58.9671,109.8587,0,U,53400,999,349,-.11161E-1,-.114779E-1,0
STARLINK-4525,2022-097P,2022-08-29T16:00:00.999936,15.68164257,.0001121,53.2178,151.7346,71.1497,95.7042,0,U,53401,999,349,-.11901E-1,-.1217449E-1,0
STARLINK-4499,2022-097Q,2022-08-29T14:00:01.000224,15.68321514,.0000972,53.2174,152.1568,96.7339,322.0223,0,U,53402,999,130,-.10792E-1,-.1103045E-1,0
STARLINK-4507,2022-097R,2022-08-29T16:00:00.999936,15.68163540,.0001257,53.2177,151.7378,70.5373,97.6236,0,U,53403,999,349,-.11668E-1,-.1195959E-1,0
STARLINK-4509,2022-097S,2022-08-29T16:00:00.999936,15.73168515,.0001017,53.2190,151.6851,86.0454,104.8342,0,U,53404,999,349,.60262E-3,.84695E-3,0
STARLINK-4510,2022-097T,2022-08-29T16:00:00.999936,15.68138044,.0001274,53.2177,151.7482,69.2813,100.8539,0,U,53405,999,349,-.11013E-1,-.1133943E-1,0
STARLINK-4533,2022-097U,2022-08-29T16:00:00.999936,15.73166478,.0001182,53.2193,151.6782,86.4294,108.0394,0,U,53406,999,349,.59233E-3,.83216E-3,0
STARLINK-4537,2022-097V,2022-08-29T16:00:00.999936,15.73232189,.0001048,53.2199,151.6883,84.4098,105.8341,0,U,53407,999,349,.74142E-4,.9812E-4,0
STARLINK-4491,2022-097W,2022-08-29T16:00:00.999936,15.73167004,.0001339,53.2199,151.6839,78.1990,114.4700,0,U,53408,999,349,.60655E-3,.85252E-3,0
STARLINK-4490,2022-097X,2022-08-29T16:00:00.999936,15.73217603,.0001106,53.2190,151.6832,86.2921,105.1838,0,U,53409,999,349,-.15451E-3,-.22262E-3,0
