2022-096L               
1 53380U 22096L   22241.66018481  .00002918  00000+0  11934-3 0  9993
2 53380  97.4349 142.9920 0004982  42.1823  45.0404 15.25133336  3100
RS19S (SXC3-219 ISOI)   
1 53381U 22096M   22241.46655927  .00003698  00000+0  15002-3 0  9990
2 53381  97.4350 142.8037 0005375  40.3914  70.9375 15.25238621  3072
RS8S (SXC3-2111 RESHUC*)
1 53382U 22096N   22241.65904398  .00003283  00000+0  13350-3 0  9995
2 53382  97.4351 142.9946 0005267  41.2148  46.6402 15.25237827  3105
RS21S (CUBESX-HSE-2)    
1 53383U 22096P   22241.40014234  .00003391  00000+0  13756-3 0  9990
2 53383  97.4351 142.7385 0005499  40.3140  71.0378 15.25297343  3068
RS30S (SXC3-217 SIREN)  
1 53384U 22096Q   22241.65822112  .00003208  00000+0  13020-3 0  9991
2 53384  97.4353 142.9955 0005432  40.2732  48.8831 15.25317313  3100
RS20S (GEOSCAN-EDELVEIS)
1 53385U 22096R   22241.39779065  .00004367  00000+0  17529-3 0  9996
2 53385  97.4346 142.7414 0005989  38.1977  73.0016 15.25492938  3095
RS33S (SXC3-215 VIZARD) 
1 53386U 22096S   22241.52845200  .00005266  00000+0  20917-3 0  9991
2 53386  97.4339 142.8772 0006786  37.1500  87.2202 15.25738591  3107
2022-095D               
1 53387U 22095D   22241.57009977  .00002398  00000+0  87943-4 0  9995
2 53387  97.4074 315.3038 0084109   1.9289 109.3472 15.25695637  3113
STARLINK-4522           
1 53388U 22097A   22241.58334491 -.01102933  00000+0 -10840-1 0  9999
2 53388  53.2173 152.1190 0000969  85.4778 323.5574 15.68211496  1308
STARLINK-4523           
1 53389U 22097B   22241.58334491 -.01102985  00000+0 -10834-1 0  9990
2 53389  53.2173 152.1229 0000974  84.0744 326.2580 15.68226115  1307
STARLINK-4517           
1 53390U 22097C   22241.66667824 -.00922102  00000+0 -90129-2 0  9996
2 53390  53.2173 151.7136 0001340  67.7724  92.6884 15.67876195  3496
STARLINK-4521           
1 53391U 22097D   22241.58334491 -.01103007  00000+0 -10831-1 0  9996
2 53391  53.2173 152.1254 0000963  95.5174 315.4634 15.68233457  1307
STARLINK-4535           
1 53392U 22097E   22241.58334491 -.01102970  00000+0 -10824-1 0  9997
2 53392  53.2174 152.1307 0000973  85.4153 326.8622 15.68248090  1306
STARLINK-4530           
1 53393U 22097F   22241.66667824 -.01157356  00000+0 -11296-1 0  9998
2 53393  53.2175 151.7204 0001230  75.0026  87.3181 15.68069667  3492
STARLINK-4544           
1 53394U 22097G   22241.66667824 -.00900034  00000+0 -57174-2 0  9993
2 53394  53.2180 151.3056 0007291 275.0886 100.8140 15.78103223  3493
STARLINK-4534           
1 53395U 22097H   22241.66667824 -.01167782  00000+0 -11399-1 0  9998
2 53395  53.2174 151.7239 0001152  72.5334  91.0874 15.68090429  3499
STARLINK-4524           
1 53396U 22097J   22241.66667824 -.00925969  00000+0 -90282-2 0  9996
2 53396  53.2175 151.7333 0001222  73.8751  92.4350 15.67947467  3497
STARLINK-4515           
1 53397U 22097K   22241.66667824 -.01164309  00000+0 -11359-1 0  9998
2 53397  53.2175 151.7262 0001215  66.5369  97.7353 15.68095328  3497
STARLINK-4512           
1 53398U 22097L   22241.58334491 -.01103052  00000+0 -10802-1 0  9991
2 53398  53.2174 152.1464 0000972  89.1859 327.6277 15.68299291  1303
STARLINK-4528           
1 53399U 22097M   22241.66667824 -.00750977  00000+0 -73297-2 0  9991
2 53399  53.2175 151.7308 0001240  73.7336  91.9937 15.67813849  3491
STARLINK-4520           
1 53400U 22097N   22241.66667824 -.01147790  00000+0 -11161-1 0  9999
2 53400  53.2175 151.7439 0001449  58.9671 109.8587 15.68137215  3494
STARLINK-4525           
1 53401U 22097P   22241.66667824 -.01217449  00000+0 -11901-1 0  9991
2 53401  53.2178 151.7346 0001121  71.1497  95.7042 15.68164257  3490
STARLINK-4499           
1 53402U 22097Q   22241.58334491 -.01103045  00000+0 -10792-1 0  9997
2 53402  53.2174 152.1568 0000972  96.7339 322.0223 15.68321514  1305
STARLINK-4507           
1 53403U 22097R   22241.66667824 -.01195959  00000+0 -11668-1 0  9994
2 53403  53.2177 151.7378 0001257  70.5373  97.6236 15.68163540  3492
STARLINK-4509           
1 53404U 22097S   22241.66667824  .00084695  00000+0  60262-3 0  9992
2 53404  53.2190 151.6851 0001017  86.0454 104.8342 15.73168515  3491
STARLINK-4510           
1 53405U 22097T   22241.66667824 -.01133943  00000+0 -11013-1 0  9995
2 53405  53.2177 151.7482 0001274  69.2813 100.8539 15.68138044  3497
STARLINK-4533           
1 53406U 22097U   22241.66667824  .00083216  00000+0  59233-3 0  9998
2 53406  53.2193 151.6782 0001182  86.4294 108.0394 15.73166478  3497
STARLINK-4537           
1 53407U 22097V   22241.66667824  .00009812  00000+0  74142-4 0  9996
2 53407  53.2199 151.6883 0001048  84.4098 105.8341 15.73232189  3497
STARLINK-4491           
1 53408U 22097W   22241.66667824  .00085252  00000+0  60655-3 0  9992
2 53408  53.2199 151.6839 0001339  78.1990 114.4700 15.73167004  3491
STARLINK-4490           
1 53409U 22097X   22241.66667824 -.00022262  00000+0 -15451-3 0  9991
2 53409  53.2190 151.6832 0001106  86.2921 105.1838 15.73217603  3492
